NORAD_CAT_ID,OBJECT_NAME,OBJECT_TYPE,EPOCH,MEAN_MOTION,ECCENTRICITY,INCLINATION,RA_OF_ASC_NODE,ARG_OF_PERICENTER,MEAN_ANOMALY,BSTAR,MEAN_MOTION_DOT,MEAN_MOTION_DDOT,TLE_LINE0,TLE_LINE1,TLE_LINE2,SEMIMAJOR_AXIS,PERIOD,APOGEE,PERIGEE,DECAYED
53253.0,STARLINK-4133,PAYLOAD,2022-10-02 22:00:00,15.08826826,0.0001862,53.2163,62.5298,42.6069,12.683,0.0028832,0.00045881,0.0,0 STARLINK-4133,1 53253U 22086M   22275.91667824  .00045881  00000-0  28832-2 0  9998,2 53253  53.2163  62.5298 0001862  42.6069  12.6830 15.08826826  1306,6917.920999999999,95.438,541.0740000000002,538.498,0.0
53253.0,STARLINK-4133,PAYLOAD,2022-10-03 06:00:00,15.08833906,0.0001655,53.2164,61.0317,48.3324,18.5673,0.0036066,0.00057571,0.0,0 STARLINK-4133,1 53253U 22086M   22276.25001157  .00057571  00000-0  36066-2 0  9994,2 53253  53.2164  61.0317 0001655  48.3324  18.5673 15.08833906 11656,6917.899,95.438,540.909,538.619,0.0
53253.0,STARLINK-4133,PAYLOAD,2022-10-03 14:00:01,15.08902479,0.0001746,53.2164,59.5364,46.0389,32.4708,-0.0037908,-0.00060218,0.0,0 STARLINK-4133,1 53253U 22086M   22276.58334491 -.00060218  00000-0 -37908-2 0  9990,2 53253  53.2164  59.5364 0001746  46.0389  32.4708 15.08902479  1304,6917.689,95.434,540.762,538.347,0.0
53253.0,STARLINK-4133,PAYLOAD,2022-10-03 22:00:00,15.08850301,0.0001821999999999,53.2159,58.0404,40.1013,50.0553,0.0024996,0.00039729,0.0,0 STARLINK-4133,1 53253U 22086M   22276.91667824  .00039729  00000-0  24996-2 0  9990,2 53253  53.2159  58.0404 0001822  40.1013  50.0553 15.08850301  1301,6917.849,95.437,540.974,538.453,0.0
53253.0,STARLINK-4133,PAYLOAD,2022-10-04 14:00:01,15.08841872,0.0001921,53.2159,55.047,53.46100000000001,59.9511,-0.0016175999999999,-0.00025942,0.0,0 STARLINK-4133,1 53253U 22086M   22277.58334491 -.00025942  00000-0 -16176-2 0  9990,2 53253  53.2159  55.0470 0001921  53.4610  59.9511 15.08841872  1306,6917.875,95.437,541.069,538.411,0.0
53253.0,STARLINK-4133,PAYLOAD,2022-10-04 16:00:00,15.08823373,0.0002000999999999,53.2158,54.6734,52.2557,154.0588,0.00056919,8.778e-05,0.0,0 STARLINK-4133,1 53253U 22086M   22277.66667824  .00008778  00000-0  56919-3 0  9994,2 53253  53.2158  54.6734 0002001  52.2557 154.0588 15.08823373 11869,6917.931,95.439,541.18,538.4119999999998,0.0
53253.0,STARLINK-4133,PAYLOAD,2022-10-04 22:00:00,15.08832602,0.0002032999999999,53.2156,53.5507,48.6615,76.3396,0.0018771,0.00029707,0.0,0 STARLINK-4133,1 53253U 22086M   22277.91667824  .00029707  00000-0  18771-2 0  9990,2 53253  53.2156  53.5507 0002033  48.6615  76.3396 15.08832602  1308,6917.903,95.438,541.174,538.362,0.0
53253.0,STARLINK-4133,PAYLOAD,2022-10-05 14:00:01,15.08859502,0.0001858,53.2156,50.5577,49.9673,98.3063,-0.0037509,-0.00059523,0.0,0 STARLINK-4133,1 53253U 22086M   22278.58335648 -.00059523  00000-0 -37509-2 0  9991,2 53253  53.2156  50.5577 0001858  49.9673  98.3063 15.08859502  1307,6917.821,95.436,540.971,538.4,0.0
53253.0,STARLINK-4133,PAYLOAD,2022-10-05 22:00:00,15.08832754,0.0001858,53.2154,49.0615,42.4679,117.3331,-0.0013683,-0.00021995,0.0,0 STARLINK-4133,1 53253U 22086M   22278.91667824 -.00021995  00000-0 -13683-2 0  9991,2 53253  53.2154  49.0615 0001858  42.4679 117.3331 15.08832754  1305,6917.903,95.438,541.053,538.482,0.0
53253.0,STARLINK-4133,PAYLOAD,2022-10-06 14:00:01,15.088235699999998,0.000196,53.2171,46.0613,49.9967,132.9429,0.001255,0.00019733,0.0,0 STARLINK-4133,1 53253U 22086M   22279.58334491  .00019733  00000-0  12550-2 0  9993,2 53253  53.2171  46.0613 0001960  49.9967 132.9429 15.08823570  1302,6917.931,95.439,541.1519999999998,538.44,0.0
53253.0,STARLINK-4133,PAYLOAD,2022-10-06 22:42:55,15.08851264,0.0001844999999999,53.2158,44.438,38.5585,317.9138,-0.0003618,-6.043e-05,0.0,0 STARLINK-4133,1 53253U 22086M   22279.94646991 -.00006043  00000-0 -36180-3 0  9992,2 53253  53.2158  44.4380 0001845  38.5585 317.9138 15.08851264  1305,6917.846,95.437,540.987,538.435,0.0
53253.0,STARLINK-4133,PAYLOAD,2022-10-07 00:00:00,15.08852831,0.0001810999999999,53.2159,44.1973,39.0009,248.4599,-0.00044782,-7.411e-05,0.0,0 STARLINK-4133,1 53253U 22086M   22280.00001157 -.00007411  00000-0 -44782-3 0  9997,2 53253  53.2159  44.1973 0001811  39.0009 248.4599 15.08852831 12224,6917.840999999999,95.437,540.9590000000002,538.453,0.0
53253.0,STARLINK-4133,PAYLOAD,2022-10-07 14:00:01,15.08865274,0.0001969,53.2163,41.5786,40.9967,176.7871,-0.0014952,-0.00024022,0.0,0 STARLINK-4133,1 53253U 22086M   22280.58334491 -.00024022  00000-0 -14952-2 0  9992,2 53253  53.2163  41.5786 0001969  40.9967 176.7871 15.08865274  1308,6917.803000000001,95.436,541.03,538.306,0.0
53253.0,STARLINK-4133,PAYLOAD,2022-10-07 22:00:00,15.08863543,0.0001909,53.2165,40.0825,36.7427,192.6443,-0.0038631,-0.00061287,0.0,0 STARLINK-4133,1 53253U 22086M   22280.91667824 -.00061287  00000-0 -38631-2 0  9992,2 53253  53.2165  40.0825 0001909  36.7427 192.6443 15.08863543  1305,6917.808000000001,95.436,540.994,538.3530000000002,0.0
53253.0,STARLINK-4133,PAYLOAD,2022-10-08 06:00:00,15.08792363,0.0001771,53.2169,38.5846,40.7521,200.2365,0.0025302,0.00040157,0.0,0 STARLINK-4133,1 53253U 22086M   22281.25001157  .00040157  00000-0  25302-2 0  9993,2 53253  53.2169  38.5846 0001771  40.7521 200.2365 15.08792363 12404,6918.026,95.441,541.116,538.6659999999998,0.0
53253.0,STARLINK-4133,PAYLOAD,2022-10-08 14:00:01,15.08828359,0.0001966,53.2171,37.0899,38.5538,213.989,-0.00071868,-0.00011704,0.0,0 STARLINK-4133,1 53253U 22086M   22281.58334491 -.00011704  00000-0 -71868-3 0  9996,2 53253  53.2171  37.0899 0001966  38.5538 213.9890 15.08828359  1304,6917.916,95.438,541.141,538.4209999999998,0.0
53253.0,STARLINK-4133,PAYLOAD,2022-10-08 22:00:00,15.08835118,0.0001963,53.2172,35.5934,34.6798,229.4447,-0.0003983,-6.621e-05,0.0,0 STARLINK-4133,1 53253U 22086M   22281.91667824 -.00006621  00000-0 -39830-3 0  9997,2 53253  53.2172  35.5934 0001963  34.6798 229.4447 15.08835118  1301,6917.895,95.438,541.118,538.4019999999998,0.0
53253.0,STARLINK-4133,PAYLOAD,2022-10-09 06:00:00,15.08824019,0.0001803,53.2176,34.0957,37.8241,237.8893,0.0038661,0.00061754,0.0,0 STARLINK-4133,1 53253U 22086M   22282.25001157  .00061754  00000-0  38661-2 0  9992,2 53253  53.2176  34.0957 0001803  37.8241 237.8893 15.08824019 12561,6917.929,95.439,541.0419999999998,538.547,0.0
53253.0,STARLINK-4133,PAYLOAD,2022-10-09 14:00:01,15.0884852,0.0002072,53.2177,32.6011,37.9324,249.3856,-0.00053826,-8.847e-05,0.0,0 STARLINK-4133,1 53253U 22086M   22282.58334491 -.00008847  00000-0 -53826-3 0  9995,2 53253  53.2177  32.6011 0002072  37.9324 249.3856 15.08848520 12615,6917.854,95.437,541.153,538.286,0.0
53253.0,STARLINK-4133,PAYLOAD,2022-10-09 22:00:00,15.08838509,0.0002063,53.2172,31.0958,32.7694,266.0863,-0.00024249,-4.145e-05,0.0,0 STARLINK-4133,1 53253U 22086M   22282.91667824 -.00004145  00000-0 -24249-3 0  9995,2 53253  53.2172  31.0958 0002063  32.7694 266.0863 15.08838509  1300,6917.885,95.438,541.177,538.323,0.0
53253.0,STARLINK-4133,PAYLOAD,2022-10-10 14:00:01,15.08836928,0.0002106999999999,53.2175,28.1036,33.7914,288.2488,-2.2261e-05,-6.42e-06,0.0,0 STARLINK-4133,1 53253U 22086M   22283.58334491 -.00000642  00000-0 -22261-4 0  9991,2 53253  53.2175  28.1036 0002107  33.7914 288.2488 15.08836928  1304,6917.89,95.438,541.212,538.297,0.0
53253.0,STARLINK-4133,PAYLOAD,2022-10-10 22:00:01,15.08934113,0.0002207,53.2173,26.6112,32.2761,301.5186,-0.021309,-0.0032527,0.0,0 STARLINK-4133,1 53253U 22086M   22283.91668981 -.00325270  00000-0 -21309-1 0  9998,2 53253  53.2173  26.6112 0002207  32.2761 301.5186 15.08934113 12812,6917.593000000003,95.432,540.984,537.931,0.0
53253.0,STARLINK-4133,PAYLOAD,2022-10-11 06:00:00,15.08790714,0.0001861,53.2175,25.1165,38.3263,306.9843,0.0023291,0.00036924,0.0,0 STARLINK-4133,1 53253U 22086M   22284.25001157  .00036924  00000-0  23291-2 0  9998,2 53253  53.2175  25.1165 0001861  38.3263 306.9843 15.08790714 12866,6918.031,95.441,541.183,538.609,0.0
53253.0,STARLINK-4133,PAYLOAD,2022-10-11 14:00:01,15.0876158,0.0002148,53.2177,23.6158,34.142,322.7117,0.0074494,0.00120039,0.0,0 STARLINK-4133,1 53253U 22086M   22284.58334491  .00120039  00000-0  74494-2 0  9996,2 53253  53.2177  23.6158 0002148  34.1420 322.7117 15.08761580  1307,6918.12,95.443,541.471,538.499,0.0
53253.0,STARLINK-4133,PAYLOAD,2022-10-11 22:00:00,15.08838189,0.0002142,53.2174,22.1172,33.9078,334.5016,-0.00021202,-3.661e-05,0.0,0 STARLINK-4133,1 53253U 22086M   22284.91667824 -.00003661  00000-0 -21202-3 0  9995,2 53253  53.2174  22.1172 0002142  33.9078 334.5016 15.08838189  1303,6917.886,95.438,541.2330000000002,538.269,0.0
53253.0,STARLINK-4133,PAYLOAD,2022-10-12 14:00:01,15.08811506,0.0001996,53.2173,19.1309,36.7644,354.8073,0.0043583999999999,0.00069709,0.0,0 STARLINK-4133,1 53253U 22086M   22285.58334491  .00069709  00000-0  43584-2 0  9999,2 53253  53.2173  19.1309 0001996  36.7644 354.8073 15.08811506  1308,6917.967,95.439,541.2130000000002,538.452,0.0
53253.0,STARLINK-4133,PAYLOAD,2022-10-12 22:00:00,15.08884486,0.0001789,53.2172,17.6302,39.6797,3.4803,-0.0046111,-0.0007302,0.0,0 STARLINK-4133,1 53253U 22086M   22285.91667824 -.00073020  00000-0 -46111-2 0  9997,2 53253  53.2172  17.6302 0001789  39.6797   3.4803 15.08884486  1309,6917.744000000002,95.435,540.847,538.372,0.0
53253.0,STARLINK-4133,PAYLOAD,2022-10-13 06:00:00,15.08783381,0.0001974,53.217,16.1365,40.2953,14.4284,0.0083802,0.00135448,0.0,0 STARLINK-4133,1 53253U 22086M   22286.25001157  .00135448  00000-0  83802-2 0  9995,2 53253  53.2170  16.1365 0001974  40.2953  14.4284 15.08783381 13162,6918.053000000001,95.441,541.284,538.553,0.0
53253.0,STARLINK-4133,PAYLOAD,2022-10-13 14:00:01,15.0896839,0.0002157,53.2174,14.6391,33.0174,33.2697,-0.011365,-0.00177374,0.0,0 STARLINK-4133,1 53253U 22086M   22286.58334491 -.00177374  00000-0 -11365-1 0  9991,2 53253  53.2174  14.6391 0002157  33.0174  33.2697 15.08968390  1302,6917.488,95.429,540.845,537.861,0.0
